LINGQIAO VIDEO A        
1 40959U 15057B   26195.58802332 -.00000170  00000+0 -16992-4 0  9999
2 40959  97.6626 189.0400 0016577 174.9836 185.1545 14.77424279579457
LINGQIAO VIDEO B        
1 40960U 15057C   26195.63045312  .00000598  00000+0  90465-4 0  9993
2 40960  97.6592 190.2367 0016771 174.8748 185.2638 14.77532772579502
JILIN-1                 
1 40961U 15057D   26195.63166397  .00000380  00000+0  58953-4 0  9996
2 40961  97.6519 193.6375 0017171 168.6998 191.4603 14.78200883579665
AEROCUBE 5C             
1 40965U 15058B   26195.32618646  .00001764  00000+0  16362-3 0  9990
2 40965  64.7652 178.1530 0132281  52.7587 308.5506 14.91572903369705
AEROCUBE 7              
1 40966U 15058C   26195.51191980  .00002819  00000+0  23039-3 0  9990
2 40966  64.7610 159.2159 0122011  51.0141 310.1765 14.95909907370042
FOX-1A (AO-85)          
1 40967U 15058D   26195.44966474  .00001665  00000+0  15724-3 0  9991
2 40967  64.7725 194.2515 0132302  46.0955 315.0989 14.91085582117632
SINOD-D 1               
1 40968U 15058E   26195.35294344  .00002777  00000+0  22665-3 0  9999
2 40968  64.7732 173.8274 0120993  42.4784 318.5615 14.96082878120727
SNAP-3 ALICE            
1 40970U 15058G   26195.61169512  .00092922  00000+0  84346-3 0  9994
2 40970  64.7491   8.6281 0024541 348.6868  11.3726 15.67107790121172
LMRST-SAT               
1 40971U 15058H   26195.41197421  .00001604  00000+0  15301-3 0  9995
2 40971  64.7731 190.7587 0133838  48.1094 313.1343 14.90700627117610
SNAP-3 EDDIE            
1 40972U 15058J   26195.57978101  .00104262  00000+0  89192-3 0  9998
2 40972  64.7401 359.2544 0025421 351.1847   8.8853 15.68485561123312
PROPCUBE 3              
1 40973U 15058K   26195.31347639  .00002337  00000+0  19953-3 0  9995
2 40973  64.7668 167.7721 0125710  49.3408 311.8552 14.94411538118855
BISONSAT                
1 40974U 15058L   26195.13586013  .00008955  00000+0  42414-3 0  9997
2 40974  64.7585  86.4661 0081980  36.3271 324.3379 15.16915005119702
SNAP-3 JIMI             
1 40975U 15058M   26195.21358746  .00004360  00000+0  30026-3 0  9999
2 40975  64.7645 134.2428 0107787  44.6929 316.2812 15.02600450118283
PROPCUBE 1 (FLORA)      
1 40976U 15058N   26195.39191994  .00001263  00000+0  12865-3 0  9999
2 40976  64.7718 210.9135 0132416  50.3966 310.8748 14.89325455120312
SINOD-D 3               
1 40977U 15058P   26195.34949689  .00002279  00000+0  19838-3 0  9992
2 40977  64.7701 190.9882 0120976  47.4631 313.6620 14.94169664118811
APSTAR-9                
1 40982U 15059A   26195.65844575 -.00000274  00000+0  00000+0 0  9992
2 40982   0.0232  45.1261 0003076 142.8060 123.6382  1.00271946 39397
TURKSAT 4B              
1 40984U 15060A   26195.42639252  .00000108  00000+0  00000+0 0  9990
2 40984   0.0142  56.8159 0002355  63.4410  15.4936  1.00272243 39372
NAVSTAR 75 (USA 265)    
1 41019U 15062A   26194.20306862 -.00000056  00000+0  00000+0 0  9998
2 41019  56.9770  29.8096 0112774 230.8892 128.1524  2.00566902 78355
ZHONGXING-2C            
1 41021U 15063A   26195.62646664 -.00000334  00000+0  00000+0 0  9995
2 41021   0.3424  88.5870 0007387  98.3581  74.5203  1.00287572 39250
YAOGAN-28               
1 41026U 15064A   26195.63820330  .00004026  00000+0  15091-3 0  9997
2 41026  97.3107 333.3512 0012067  94.8895 265.3722 15.27755686594873
GSAT-15                 
1 41028U 15065A   26195.36368464  .00000000  00000+0  00000+0 0  9993
2 41028   0.0277  63.4769 0003580  29.8725  63.3157  1.00267881 39074
BADR-7 (ARABSAT-6B)     
1 41029U 15065B   26195.56422045  .00000000  00000+0  00000+0 0  9992
2 41029   0.0171 250.6450 0005173 312.8032 318.1238  1.00275170 39049
COSMOS 2510             
1 41032U 15066A   26192.33178622 -.00001608  00000+0  00000+0 0  9994
2 41032  63.4773 342.8105 7199272 274.7101  13.8681  2.00831344 77954
LAOSAT 1                
1 41034U 15067A   26195.51572480  .00000000  00000+0  00000+0 0  9994
2 41034   0.0193 272.7451 0002137 151.4473 182.3574  1.00265433 39133
TELSTAR 12V             
1 41036U 15068A   26195.41347913  .00000000  00000+0  00000+0 0  9997
2 41036   0.0280  56.8709 0002092  53.9293 315.3427  1.00269504 38895
YAOGAN-29               
1 41038U 15069A   26195.63711747  .00000491  00000+0  66875-4 0  9995
2 41038  98.0020 224.3117 0000757  13.8036 346.3198 14.83106673574691
ELEKTRO-L 2             
1 41105U 15074A   26195.41356580 -.00000129  00000+0  00000+0 0  9994
2 41105   6.7595  70.1832 0001026 212.6794 143.7919  1.00272099 38775
COSMOS 2513             
1 41121U 15075A   26195.64620647 -.00000146  00000+0  00000+0 0  9995
2 41121   0.0640 104.5235 0002513 342.6778 158.1675  1.00270873 38821
VELOX-CI                
1 41166U 15077A   26195.44669521  .00013813  00000+0  21176-3 0  9993
2 41166  14.9810 233.1580 0004636 265.3369  94.6428 15.50895990586966
KENT RIDGE 1            
1 41167U 15077B   26195.27312472  .00002444  00000+0  68866-4 0  9991
2 41167  14.9803  64.5207 0008299 262.2466  97.6913 15.23280956585235
DAMPE                   
1 41173U 15078A   26195.62232541  .00000584  00000+0  22189-4 0  9997
2 41173  97.4558 201.2254 0011642 347.6642  12.4312 15.30851912588748
